start=new Date('2023-04-02T00:00:00.000Z').valueOf();
sats=[{"MEAN_MOTION_DDOT":"0.0000000000000","TIME_SYSTEM":"UTC","MEAN_MOTION_DOT":"0.00008289","RA_OF_ASC_NODE":"186.3593","LAUNCH_DATE":"2022-05-06","ARG_OF_PERICENTER":"84.9833","OBJECT_NAME":"STARLINK-3883","DECAY_DATE":null,"ELEMENT_SET_NO":"999","RCS_SIZE":"LARGE","TLE_LINE1":"1 52493U 22049AU  23091.60988655  .00008289  00000-0  53822-3 0  9992","FILE":"3877516","ECCENTRICITY":"0.00010820","REV_AT_EPOCH":"5039","NORAD_CAT_ID":"52493","INCLINATION":"53.2148","CENTER_NAME":"EARTH","APOAPSIS":"540.489","EPOCH":"2023-04-01T14:38:14.197920","SITE":"AFETR","SEMIMAJOR_AXIS":"6917.876","OBJECT_ID":"2022-049AU","OBJECT_TYPE":"PAYLOAD","PERIAPSIS":"538.992","GP_ID":"229278300","REF_FRAME":"TEME","BSTAR":"0.00053822000000","MEAN_ANOMALY":"275.1282","TLE_LINE2":"2 52493  53.2148 186.3593 0001082  84.9833 275.1282 15.08841583 50396","CLASSIFICATION_TYPE":"U","COUNTRY_CODE":"US","EPHEMERIS_TYPE":"0","PERIOD":"95.437","MEAN_MOTION":"15.08841583","MEAN_ELEMENT_THEORY":"SGP4"},{"LAUNCH_DATE":"2022-05-06","DECAY_DATE":null,"ELEMENT_SET_NO":"999","TLE_LINE1":"1 52494U 22049AV  23091.65403916  .00000531  00000-0  51473-4 0  9993","RCS_SIZE":"LARGE","OBJECT_NAME":"STARLINK-3857","ARG_OF_PERICENTER":"95.2520","MEAN_MOTION_DDOT":"0.0000000000000","TIME_SYSTEM":"UTC","RA_OF_ASC_NODE":"186.1658","MEAN_MOTION_DOT":"0.00000531","GP_ID":"229278050","PERIAPSIS":"538.617","REF_FRAME":"TEME","BSTAR":"0.00005147300000","SEMIMAJOR_AXIS":"6917.861","OBJECT_ID":"2022-049AV","OBJECT_TYPE":"PAYLOAD","PERIOD":"95.437","TLE_LINE2":"2 52494  53.2146 186.1658 0001604  95.2520 264.8656 15.08846246 50406","EPHEMERIS_TYPE":"0","COUNTRY_CODE":"US","CLASSIFICATION_TYPE":"U","MEAN_ELEMENT_THEORY":"SGP4","MEAN_MOTION":"15.08846246","MEAN_ANOMALY":"264.8656","NORAD_CAT_ID":"52494","REV_AT_EPOCH":"5040","FILE":"3877516","ECCENTRICITY":"0.00016040","SITE":"AFETR","APOAPSIS":"540.836","CENTER_NAME":"EARTH","INCLINATION":"53.2146","EPOCH":"2023-04-01T15:41:48.983424"},{"MEAN_MOTION_DDOT":"0.0000000000000","MEAN_MOTION_DOT":"-0.00000113","RA_OF_ASC_NODE":"186.6934","TIME_SYSTEM":"UTC","LAUNCH_DATE":"2022-05-06","RCS_SIZE":"LARGE","TLE_LINE1":"1 52495U 22049AW  23091.53629034 -.00000113  00000-0  11017-4 0  9999","ELEMENT_SET_NO":"999","DECAY_DATE":null,"OBJECT_NAME":"STARLINK-3905","ARG_OF_PERICENTER":"76.5101","NORAD_CAT_ID":"52495","REV_AT_EPOCH":"5038","ECCENTRICITY":"0.00014670","FILE":"3877270","SITE":"AFETR","EPOCH":"2023-04-01T12:52:15.485376","APOAPSIS":"540.783","INCLINATION":"53.2160","CENTER_NAME":"EARTH","BSTAR":"0.00001101700000","REF_FRAME":"TEME","PERIAPSIS":"538.753","GP_ID":"229246019","OBJECT_TYPE":"PAYLOAD","OBJECT_ID":"2022-049AW","SEMIMAJOR_AXIS":"6917.903","MEAN_ELEMENT_THEORY":"SGP4","MEAN_MOTION":"15.08832556","PERIOD":"95.438","TLE_LINE2":"2 52495  53.2160 186.6934 0001467  76.5101 283.6055 15.08832556 50387","COUNTRY_CODE":"US","CLASSIFICATION_TYPE":"U","EPHEMERIS_TYPE":"0","MEAN_ANOMALY":"283.6055"},{"SITE":"AFETR","EPOCH":"2023-04-01T21:18:59.819904","CENTER_NAME":"EARTH","INCLINATION":"53.2165","APOAPSIS":"540.786","REV_AT_EPOCH":"5050","NORAD_CAT_ID":"52496","ECCENTRICITY":"0.00014720","FILE":"3877516","MEAN_MOTION":"15.08832767","MEAN_ELEMENT_THEORY":"SGP4","TLE_LINE2":"2 52496  53.2165 180.1135 0001472  76.5105 283.6051 15.08832767 50509","CLASSIFICATION_TYPE":"U","COUNTRY_CODE":"US","EPHEMERIS_TYPE":"0","PERIOD":"95.438","MEAN_ANOMALY":"283.6051","BSTAR":"0.00141610000000","REF_FRAME":"TEME","GP_ID":"229279550","PERIAPSIS":"538.749","OBJECT_ID":"2022-049AX","OBJECT_TYPE":"PAYLOAD","SEMIMAJOR_AXIS":"6917.902","RA_OF_ASC_NODE":"180.1135","MEAN_MOTION_DOT":"0.00022317","TIME_SYSTEM":"UTC","MEAN_MOTION_DDOT":"0.0000000000000","RCS_SIZE":"LARGE","TLE_LINE1":"1 52496U 22049AX  23091.88819236  .00022317  00000-0  14161-2 0  9993","ELEMENT_SET_NO":"999","DECAY_DATE":null,"ARG_OF_PERICENTER":"76.5105","OBJECT_NAME":"STARLINK-3871","LAUNCH_DATE":"2022-05-06"},{"MEAN_MOTION_DOT":"-0.00001080","RA_OF_ASC_NODE":"186.7286","TIME_SYSTEM":"UTC","MEAN_MOTION_DDOT":"0.0000000000000","TLE_LINE1":"1 52497U 22049AY  23091.52893422 -.00001080  00000-0 -49795-4 0  9993","RCS_SIZE":"LARGE","ELEMENT_SET_NO":"999","DECAY_DATE":null,"OBJECT_NAME":"STARLINK-3884","ARG_OF_PERICENTER":"74.1914","LAUNCH_DATE":"2022-05-06","SITE":"AFETR","EPOCH":"2023-04-01T12:41:39.916608","APOAPSIS":"541.109","INCLINATION":"53.2152","CENTER_NAME":"EARTH","NORAD_CAT_ID":"52497","REV_AT_EPOCH":"5038","ECCENTRICITY":"0.00019320","FILE":"3877270","MEAN_ELEMENT_THEORY":"SGP4","MEAN_MOTION":"15.08831175","PERIOD":"95.438","TLE_LINE2":"2 52497  53.2152 186.7286 0001932  74.1914 285.9291 15.08831175 50387","CLASSIFICATION_TYPE":"U","COUNTRY_CODE":"US","EPHEMERIS_TYPE":"0","MEAN_ANOMALY":"285.9291","REF_FRAME":"TEME","BSTAR":"-0.00004979500000","PERIAPSIS":"538.436","GP_ID":"229246521","OBJECT_ID":"2022-049AY","OBJECT_TYPE":"PAYLOAD","SEMIMAJOR_AXIS":"6917.907"},{"BSTAR":"0.00234310000000","REF_FRAME":"TEME","GP_ID":"229278551","PERIAPSIS":"538.945","OBJECT_ID":"2022-049AZ","OBJECT_TYPE":"PAYLOAD","SEMIMAJOR_AXIS":"6917.903","MEAN_ELEMENT_THEORY":"SGP4","MEAN_MOTION":"15.08832736","PERIOD":"95.438","COUNTRY_CODE":"US","TLE_LINE2":"2 52498  53.2152 175.9469 0001189  86.8718 273.2411 15.08832736 50543","EPHEMERIS_TYPE":"0","CLASSIFICATION_TYPE":"U","MEAN_ANOMALY":"273.2411","NORAD_CAT_ID":"52498","REV_AT_EPOCH":"5054","ECCENTRICITY":"0.00011890","FILE":"3877516","SITE":"AFETR","EPOCH":"2023-04-01T16:52:03.074304","APOAPSIS":"540.590","INCLINATION":"53.2152","CENTER_NAME":"EARTH","LAUNCH_DATE":"2022-05-06","TLE_LINE1":"1 52498U 22049AZ  23091.70281336  .00037192  00000-0  23431-2 0  9997","RCS_SIZE":"LARGE","DECAY_DATE":null,"ELEMENT_SET_NO":"999","OBJECT_NAME":"STARLINK-3925","ARG_OF_PERICENTER":"86.8718","MEAN_MOTION_DDOT":"0.0000000000000","RA_OF_ASC_NODE":"175.9469","MEAN_MOTION_DOT":"0.00037192","TIME_SYSTEM":"UTC"},{"LAUNCH_DATE":"2022-05-06","ARG_OF_PERICENTER":"86.5372","OBJECT_NAME":"STARLINK-3894","DECAY_DATE":null,"ELEMENT_SET_NO":"999","RCS_SIZE":"LARGE","TLE_LINE1":"1 52499U 22049BA  23091.65772853  .00047628  00000-0  29897-2 0  9998","MEAN_MOTION_DDOT":"0.0000000000000","TIME_SYSTEM":"UTC","RA_OF_ASC_NODE":"186.1487","MEAN_MOTION_DOT":"0.00047628","SEMIMAJOR_AXIS":"6917.849","OBJECT_TYPE":"PAYLOAD","OBJECT_ID":"2022-049BA","GP_ID":"229278801","PERIAPSIS":"538.810","REF_FRAME":"TEME","BSTAR":"0.00298970000000","MEAN_ANOMALY":"273.5770","TLE_LINE2":"2 52499  53.2138 186.1487 0001307  86.5372 273.5770 15.08850341 50405","EPHEMERIS_TYPE":"0","COUNTRY_CODE":"US","CLASSIFICATION_TYPE":"U","PERIOD":"95.437","MEAN_MOTION":"15.08850341","MEAN_ELEMENT_THEORY":"SGP4","FILE":"3877516","ECCENTRICITY":"0.00013070","REV_AT_EPOCH":"5040","NORAD_CAT_ID":"52499","INCLINATION":"53.2138","CENTER_NAME":"EARTH","APOAPSIS":"540.618","EPOCH":"2023-04-01T15:47:07.744992","SITE":"AFETR"},{"MEAN_MOTION_DDOT":"0.0000000000000","TIME_SYSTEM":"UTC","RA_OF_ASC_NODE":"176.8552","MEAN_MOTION_DOT":"0.00001628","LAUNCH_DATE":"2022-05-06","ELEMENT_SET_NO":"999","DECAY_DATE":null,"RCS_SIZE":"LARGE","TLE_LINE1":"1 52500U 22049BB  23091.50040760  .00001628  00000-0  12037-3 0  9999","ARG_OF_PERICENTER":"88.0348","OBJECT_NAME":"STARLINK-3866","REV_AT_EPOCH":"5051","NORAD_CAT_ID":"52500","FILE":"3877270","ECCENTRICITY":"0.00009660","SITE":"AFETR","INCLINATION":"53.2150","CENTER_NAME":"EARTH","APOAPSIS":"540.451","EPOCH":"2023-04-01T12:00:35.216640","PERIAPSIS":"539.115","GP_ID":"229246771","BSTAR":"0.00012037000000","REF_FRAME":"TEME","SEMIMAJOR_AXIS":"6917.918","OBJECT_TYPE":"PAYLOAD","OBJECT_ID":"2022-049BB","COUNTRY_CODE":"US","TLE_LINE2":"2 52500  53.2150 176.8552 0000966  88.0348 272.0755 15.08827718 50512","EPHEMERIS_TYPE":"0","CLASSIFICATION_TYPE":"U","PERIOD":"95.438","MEAN_MOTION":"15.08827718","MEAN_ELEMENT_THEORY":"SGP4","MEAN_ANOMALY":"272.0755"},{"EPOCH":"2023-04-01T13:39:54.704160","INCLINATION":"53.2152","CENTER_NAME":"EARTH","APOAPSIS":"540.522","SITE":"AFETR","ECCENTRICITY":"0.00011430","FILE":"3877516","REV_AT_EPOCH":"5039","NORAD_CAT_ID":"52501","MEAN_ANOMALY":"263.9875","MEAN_MOTION":"15.08844682","MEAN_ELEMENT_THEORY":"SGP4","EPHEMERIS_TYPE":"0","TLE_LINE2":"2 52501  53.2152 186.3393 0001143  96.1247 263.9875 15.08844682 50397","COUNTRY_CODE":"US","CLASSIFICATION_TYPE":"U","PERIOD":"95.437","OBJECT_ID":"2022-049BC","OBJECT_TYPE":"PAYLOAD","SEMIMAJOR_AXIS":"6917.866","BSTAR":"0.00204940000000","REF_FRAME":"TEME","GP_ID":"229278301","PERIAPSIS":"538.940","MEAN_MOTION_DOT":"0.00032483","RA_OF_ASC_NODE":"186.3393","TIME_SYSTEM":"UTC","MEAN_MOTION_DDOT":"0.0000000000000","ARG_OF_PERICENTER":"96.1247","OBJECT_NAME":"STARLINK-3907","RCS_SIZE":"LARGE","TLE_LINE1":"1 52501U 22049BC  23091.56938315  .00032483  00000-0  20494-2 0  9996","ELEMENT_SET_NO":"999","DECAY_DATE":null,"LAUNCH_DATE":"2022-05-06"},{"RA_OF_ASC_NODE":"176.2894","MEAN_MOTION_DOT":"-0.00000715","TIME_SYSTEM":"UTC","MEAN_MOTION_DDOT":"0.0000000000000","TLE_LINE1":"1 52502U 22049BD  23091.62648426 -.00000715  00000-0 -26846-4 0  9999","RCS_SIZE":"LARGE","ELEMENT_SET_NO":"999","DECAY_DATE":null,"ARG_OF_PERICENTER":"101.6019","OBJECT_NAME":"STARLINK-3912","LAUNCH_DATE":"2022-05-06","SITE":"AFETR","EPOCH":"2023-04-01T15:02:08.240064","INCLINATION":"53.2168","CENTER_NAME":"EARTH","APOAPSIS":"540.727","REV_AT_EPOCH":"5053","NORAD_CAT_ID":"52502","ECCENTRICITY":"0.00013800","FILE":"3877516","MEAN_MOTION":"15.08831077","MEAN_ELEMENT_THEORY":"SGP4","TLE_LINE2":"2 52502  53.2168 176.2894 0001380 101.6019 258.5128 15.08831077 50532","EPHEMERIS_TYPE":"0","COUNTRY_CODE":"US","CLASSIFICATION_TYPE":"U","PERIOD":"95.438","MEAN_ANOMALY":"258.5128","REF_FRAME":"TEME","BSTAR":"-0.00002684600000","GP_ID":"229278051","PERIAPSIS":"538.818","OBJECT_TYPE":"PAYLOAD","OBJECT_ID":"2022-049BD","SEMIMAJOR_AXIS":"6917.908"}];
